{"type":"FeatureCollection","features":[{"type":"Feature","properties":{"carta_id":"74","answer_id":"578","name":"Ilha Bouvet"},"geometry":{"type":"Point","coordinates":[3.4,-54.43333]}},{"type":"Feature","properties":{"carta_id":"312","answer_id":"250","name":"Guadalupe"},"geometry":{"type":"MultiPolygon","coordinates":[[[[-61.60982,15.83716],[-61.61165,15.83855],[-61.60924,15.8361],[-61.60982,15.83716]]],[[[-61.59096,15.84217],[-61.59706,15.83574],[-61.58514,15.83265],[-61.58468,15.83602],[-61.58719,15.83871],[-61.58906,15.83819],[-61.59096,15.84217]]],[[[-61.63454,15.86776],[-61.63545,15.871],[-61.63956,15.86309],[-61.64385,15.86022],[-61.6463,15.86093],[-61.64677,15.85385],[-61.65052,15.84787],[-61.6336,15.84001],[-61.62832,15.84235],[-61.6256,15.84812],[-61.62232,15.85117],[-61.6211,15.85532],[-61.61939,15.85496],[-61.6183,15.85167],[-61.61651,15.85454],[-61.61551,15.85359],[-61.61441,15.85519],[-61.61651,15.85806],[-61.62435,15.85909],[-61.62354,15.86565],[-61.63454,15.86776]]],[[[-61.5917,15.87754],[-61.60129,15.87728],[-61.59685,15.87526],[-61.59388,15.87194],[-61.59116,15.87622],[-61.5917,15.87754]]],[[[-61.569,15.87913],[-61.57058,15.879],[-61.57084,15.8829],[-61.57355,15.88339],[-61.57559,15.87486],[-61.57852,15.87298],[-61.57939,15.87871],[-61.58123,15.88088],[-61.58238,15.87715],[-61.58502,15.87455],[-61.58225,15.86916],[-61.58441,15.86443],[-61.5861,15.86364],[-61.58961,15.86505],[-61.59112,15.86377],[-61.59777,15.86338],[-61.59895,15.86487],[-61.60015,15.85985],[-61.60457,15.85939],[-61.6064,15.85726],[-61.60224,15.85784],[-61.59717,15.85334],[-61.59295,15.85304],[-61.5909,15.85432],[-61.58858,15.85923],[-61.58572,15.85726],[-61.57953,15.85806],[-61.57833,15.85564],[-61.57623,15.85773],[-61.57901,15.86057],[-61.57673,15.86665],[-61.57219,15.86769],[-61.56677,15.87167],[-61.57043,15.87131],[-61.57174,15.87305],[-61.56931,15.8755],[-61.569,15.87913]]],[[[-61.31792,15.88191],[-61.30824,15.87897],[-61.30218,15.87469],[-61.28271,15.86986],[-61.27958,15.86675],[-61.26863,15.86765],[-61.26348,15.87095],[-61.25045,15.87215],[-61.24258,15.87455],[-61.22188,15.88848],[-61.21724,15.8955],[-61.20315,15.90261],[-61.19778,15.91554],[-61.19625,15.92135],[-61.19709,15.9262],[-61.19512,15.93033],[-61.19853,15.94003],[-61.20052,15.94492],[-61.20553,15.95075],[-61.21268,15.95562],[-61.21732,15.95661],[-61.21934,15.96204],[-61.22458,15.96447],[-61.22351,15.96808],[-61.22674,15.96761],[-61.22997,15.97111],[-61.23114,15.97345],[-61.23006,15.97641],[-61.23195,15.97722],[-61.23039,15.98053],[-61.23299,15.98235],[-61.2321,15.98435],[-61.23309,15.98545],[-61.23933,15.98553],[-61.23964,15.98851],[-61.24354,15.98809],[-61.24223,15.99119],[-61.25225,15.99232],[-61.26168,16.00004],[-61.27578,16.00496],[-61.27605,16.00709],[-61.27797,16.00462],[-61.28198,16.00296],[-61.28565,16.00395],[-61.29082,16.00302],[-61.29679,15.99675],[-61.30048,15.98809],[-61.30547,15.9868],[-61.30632,15.97865],[-61.31877,15.97588],[-61.31765,15.96635],[-61.31988,15.95244],[-61.32385,15.94875],[-61.337,15.94171],[-61.33324,15.91901],[-61.3291,15.90476],[-61.3313,15.90042],[-61.32967,15.89704],[-61.32605,15.89567],[-61.32444,15.88913],[-61.31792,15.88191]],[[-61.29676,15.9812],[-61.29609,15.97983],[-61.29982,15.98293],[-61.29676,15.9812]]],[[[-61.7893,16.16916],[-61.79172,16.16745],[-61.78852,16.16764],[-61.7893,16.16916]]],[[[-61.10923,16.17199],[-61.11119,16.17385],[-61.11915,16.17123],[-61.12244,16.17279],[-61.13079,16.17217],[-61.12771,16.16923],[-61.1195,16.16726],[-61.10808,16.16907],[-61.10669,16.17127],[-61.10777,16.17253],[-61.10923,16.17199]]],[[[-61.10382,16.18065],[-61.11097,16.17876],[-61.11346,16.1767],[-61.10606,16.17605],[-61.10382,16.18065]]],[[[-61.54057,16.21542],[-61.54306,16.21882],[-61.5428,16.21406],[-61.535,16.21354],[-61.53679,16.21521],[-61.54057,16.21542]]],[[[-61.55419,16.22417],[-61.55237,16.22206],[-61.55009,16.22272],[-61.55419,16.22417]]],[[[-61.55176,16.2822],[-61.55283,16.28139],[-61.54997,16.28064],[-61.55176,16.2822]]],[[[-61.68749,16.33619],[-61.68843,16.33539],[-61.68681,16.33516],[-61.68749,16.33619]]],[[[-61.68518,16.33785],[-61.685,16.33571],[-61.68281,16.33448],[-61.68154,16.33606],[-61.68518,16.33785]]],[[[-61.68723,16.33873],[-61.68867,16.33841],[-61.68842,16.33667],[-61.68627,16.33761],[-61.68723,16.33873]]],[[[-61.67419,16.34356],[-61.67524,16.34487],[-61.67768,16.34386],[-61.67419,16.34356]]],[[[-61.68413,16.34726],[-61.68551,16.34707],[-61.68294,16.34643],[-61.68413,16.34726]]],[[[-61.0902,16.31005],[-61.09337,16.30532],[-61.09765,16.3031],[-61.09608,16.29846],[-61.09823,16.29405],[-61.09603,16.29052],[-61.09343,16.29451],[-61.08219,16.29697],[-61.07942,16.29975],[-61.07699,16.29927],[-61.07375,16.30273],[-61.06615,16.30307],[-61.04843,16.30795],[-61.02557,16.32435],[-61.01891,16.32761],[-61.01371,16.32729],[-61.01339,16.32981],[-61.01178,16.3287],[-61.00906,16.32966],[-61.00185,16.33438],[-61.00665,16.34115],[-61.00567,16.34394],[-61.00738,16.34473],[-61.00787,16.34853],[-61.01024,16.34972],[-61.01674,16.34849],[-61.01833,16.34428],[-61.02402,16.34373],[-61.02842,16.34003],[-61.03023,16.34062],[-61.0318,16.33727],[-61.03459,16.33835],[-61.038,16.33502],[-61.0409,16.33486],[-61.04465,16.33206],[-61.04609,16.33053],[-61.0478,16.33219],[-61.04986,16.32882],[-61.05588,16.32671],[-61.0594,16.32235],[-61.06414,16.31984],[-61.06935,16.3184],[-61.0743,16.31903],[-61.07483,16.31867],[-61.07829,16.31217],[-61.08633,16.31095],[-61.08924,16.3118],[-61.0902,16.31005]]],[[[-61.52562,16.35032],[-61.52974,16.34996],[-61.52498,16.34832],[-61.52562,16.35032]]],[[[-61.58126,16.35079],[-61.59008,16.35356],[-61.59642,16.34132],[-61.59422,16.34209],[-61.59388,16.34454],[-61.59165,16.34632],[-61.58412,16.34457],[-61.58023,16.34572],[-61.5792,16.34924],[-61.58126,16.35079]]],[[[-61.65829,16.28984],[-61.65429,16.29168],[-61.65451,16.29315],[-61.65911,16.29406],[-61.65617,16.29796],[-61.64832,16.29531],[-61.64122,16.29696],[-61.63451,16.29645],[-61.63424,16.29924],[-61.63033,16.29956],[-61.62208,16.29555],[-61.61522,16.29582],[-61.60771,16.29945],[-61.60653,16.2994],[-61.60487,16.29752],[-61.6012,16.30284],[-61.60727,16.30474],[-61.62562,16.30149],[-61.6279,16.30445],[-61.63314,16.30498],[-61.63391,16.30742],[-61.63717,16.30912],[-61.64304,16.30866],[-61.64486,16.31228],[-61.64091,16.31628],[-61.65122,16.32135],[-61.65593,16.3196],[-61.66256,16.32007],[-61.66479,16.31828],[-61.66567,16.31929],[-61.66458,16.32083],[-61.6684,16.32061],[-61.66952,16.32281],[-61.67069,16.32047],[-61.67253,16.32466],[-61.68003,16.32834],[-61.68003,16.32981],[-61.68192,16.32465],[-61.68396,16.32402],[-61.68601,16.32591],[-61.68639,16.32971],[-61.69075,16.33121],[-61.69354,16.33488],[-61.69755,16.33454],[-61.69862,16.33573],[-61.70123,16.33439],[-61.70316,16.33622],[-61.71417,16.33753],[-61.71724,16.34217],[-61.71625,16.3446],[-61.71999,16.34733],[-61.72198,16.34724],[-61.7212,16.35044],[-61.72469,16.35226],[-61.72495,16.35393],[-61.72746,16.35416],[-61.72955,16.35711],[-61.73276,16.35613],[-61.73815,16.35811],[-61.73923,16.35999],[-61.7437,16.36174],[-61.74587,16.36028],[-61.74641,16.35685],[-61.74998,16.35418],[-61.75343,16.35356],[-61.75965,16.35524],[-61.76576,16.35326],[-61.77149,16.34944],[-61.77583,16.34938],[-61.77807,16.34604],[-61.77795,16.3414],[-61.78488,16.33787],[-61.78872,16.33331],[-61.78684,16.32921],[-61.78693,16.32478],[-61.7889,16.32137],[-61.78734,16.31956],[-61.7907,16.31831],[-61.78887,16.32073],[-61.80022,16.31627],[-61.80171,16.31302],[-61.80012,16.31074],[-61.79501,16.30853],[-61.79555,16.30457],[-61.8003,16.30352],[-61.80195,16.30093],[-61.80181,16.29565],[-61.80305,16.29447],[-61.80144,16.28622],[-61.80398,16.28132],[-61.80262,16.27838],[-61.8041,16.27536],[-61.80943,16.27239],[-61.80834,16.2692],[-61.80579,16.26835],[-61.80609,16.25775],[-61.80252,16.25139],[-61.80149,16.24303],[-61.79697,16.24007],[-61.79496,16.23628],[-61.79204,16.23568],[-61.78748,16.22897],[-61.78473,16.22368],[-61.78473,16.21796],[-61.78235,16.21429],[-61.7825,16.20766],[-61.78525,16.20332],[-61.78724,16.19521],[-61.78231,16.18813],[-61.78392,16.17657],[-61.78266,16.17418],[-61.77881,16.17452],[-61.77599,16.17109],[-61.77689,16.16979],[-61.77489,16.14862],[-61.7797,16.13962],[-61.77456,16.1388],[-61.77142,16.13585],[-61.76975,16.13086],[-61.77013,16.12797],[-61.77343,16.12632],[-61.77412,16.12319],[-61.77443,16.11072],[-61.7726,16.10566],[-61.77466,16.10422],[-61.77426,16.10227],[-61.77199,16.10176],[-61.77331,16.09795],[-61.77036,16.09596],[-61.77277,16.09344],[-61.77263,16.09125],[-61.77132,16.09001],[-61.76605,16.09032],[-61.76914,16.08673],[-61.76737,16.08352],[-61.7692,16.07941],[-61.768,16.07414],[-61.76979,16.05999],[-61.76478,16.04932],[-61.75457,16.04019],[-61.75352,16.03639],[-61.75059,16.03367],[-61.74812,16.0278],[-61.74652,16.01124],[-61.74355,16.00617],[-61.73429,15.99868],[-61.73342,15.99595],[-61.72629,15.98844],[-61.71667,15.98203],[-61.71666,15.98431],[-61.7152,15.98253],[-61.71672,15.98157],[-61.71243,15.97825],[-61.70807,15.96476],[-61.70954,15.95482],[-61.70761,15.95306],[-61.70722,15.94844],[-61.70483,15.94936],[-61.70007,15.94665],[-61.69724,15.94682],[-61.69094,15.94925],[-61.68027,15.95069],[-61.67586,15.95268],[-61.67258,15.95874],[-61.66841,15.9626],[-61.6624,15.96451],[-61.65875,15.96093],[-61.65542,15.96546],[-61.64856,15.9699],[-61.6446,15.96862],[-61.64431,15.96732],[-61.63672,15.96801],[-61.63398,15.96658],[-61.63215,15.9681],[-61.6301,15.96758],[-61.63012,15.97036],[-61.62709,15.97215],[-61.62463,15.97116],[-61.62257,15.97242],[-61.61955,15.97197],[-61.61863,15.97359],[-61.6206,15.97662],[-61.6146,15.98213],[-61.6135,15.99021],[-61.60425,15.99578],[-61.60221,16.00053],[-61.59838,16.00128],[-61.59721,16.0042],[-61.58881,16.00916],[-61.58826,16.01151],[-61.58448,16.0125],[-61.57927,16.01912],[-61.57285,16.02194],[-61.5717,16.02465],[-61.56939,16.02542],[-61.56966,16.02835],[-61.56469,16.03391],[-61.56383,16.04285],[-61.55627,16.05161],[-61.55885,16.05439],[-61.5554,16.0536],[-61.56073,16.06274],[-61.56078,16.07348],[-61.5589,16.07821],[-61.56065,16.08332],[-61.55892,16.09387],[-61.5612,16.09679],[-61.56219,16.10651],[-61.56873,16.11017],[-61.57079,16.11619],[-61.56882,16.1232],[-61.56081,16.1285],[-61.56052,16.13069],[-61.56359,16.13517],[-61.56659,16.13468],[-61.57403,16.13754],[-61.57401,16.13957],[-61.57784,16.1436],[-61.57542,16.1452],[-61.57455,16.1511],[-61.57589,16.15369],[-61.58154,16.15552],[-61.5818,16.1608],[-61.58436,16.16344],[-61.58544,16.17144],[-61.58411,16.17032],[-61.57944,16.17329],[-61.57986,16.17849],[-61.58571,16.18006],[-61.58619,16.18281],[-61.58882,16.18536],[-61.58831,16.18734],[-61.59034,16.19206],[-61.58987,16.19517],[-61.58305,16.20437],[-61.58697,16.20811],[-61.58737,16.21156],[-61.58575,16.21437],[-61.58844,16.2184],[-61.58457,16.23285],[-61.58229,16.23585],[-61.57889,16.23732],[-61.57748,16.23521],[-61.57464,16.23456],[-61.56754,16.23632],[-61.56627,16.23368],[-61.56231,16.23132],[-61.56235,16.23441],[-61.55909,16.23508],[-61.55531,16.23195],[-61.55243,16.22502],[-61.54787,16.2234],[-61.54504,16.22553],[-61.54654,16.22833],[-61.54189,16.23134],[-61.54453,16.2332],[-61.54917,16.23194],[-61.55076,16.2349],[-61.55088,16.23994],[-61.54873,16.24264],[-61.55332,16.2503],[-61.54797,16.25537],[-61.54745,16.2583],[-61.54856,16.27085],[-61.55031,16.27052],[-61.54908,16.27105],[-61.54974,16.27765],[-61.55117,16.27882],[-61.55346,16.27825],[-61.55288,16.28229],[-61.55836,16.28646],[-61.56055,16.28601],[-61.56044,16.2836],[-61.56201,16.28355],[-61.56331,16.28633],[-61.56481,16.28655],[-61.56964,16.28365],[-61.56979,16.28174],[-61.57385,16.28212],[-61.57517,16.28081],[-61.57603,16.28166],[-61.57472,16.28331],[-61.5761,16.28501],[-61.58058,16.28279],[-61.57888,16.28157],[-61.57867,16.27912],[-61.58342,16.27435],[-61.58421,16.27022],[-61.59113,16.26663],[-61.59671,16.26606],[-61.60085,16.26994],[-61.59691,16.27502],[-61.59913,16.27802],[-61.59801,16.28179],[-61.60237,16.27292],[-61.60709,16.26855],[-61.61203,16.26719],[-61.61512,16.26963],[-61.61226,16.27401],[-61.61183,16.27915],[-61.62429,16.27554],[-61.62671,16.28028],[-61.62581,16.28261],[-61.62083,16.28461],[-61.61906,16.28677],[-61.6204,16.29214],[-61.61653,16.28795],[-61.62096,16.28313],[-61.61772,16.28208],[-61.61413,16.28354],[-61.61054,16.29376],[-61.60628,16.29651],[-61.60569,16.29744],[-61.60645,16.29872],[-61.60967,16.2985],[-61.61532,16.29527],[-61.6209,16.29491],[-61.63052,16.29898],[-61.63405,16.29883],[-61.63381,16.29648],[-61.63465,16.29589],[-61.64037,16.29653],[-61.64866,16.29478],[-61.6558,16.29779],[-61.65869,16.29423],[-61.65432,16.29344],[-61.65371,16.29217],[-61.6547,16.29065],[-61.65829,16.28984]],[[-61.66349,16.29026],[-61.66616,16.28997],[-61.66695,16.28812],[-61.66543,16.2835],[-61.66787,16.27965],[-61.66579,16.28326],[-61.66751,16.28753],[-61.66709,16.28948],[-61.66611,16.29047],[-61.66349,16.29026]],[[-61.66849,16.3178],[-61.66955,16.31747],[-61.66981,16.31996],[-61.66741,16.31956],[-61.66849,16.3178]],[[-61.67108,16.23913],[-61.67098,16.24074],[-61.6697,16.23917],[-61.67108,16.23913]],[[-61.59025,16.21258],[-61.59482,16.2086],[-61.59382,16.21109],[-61.59025,16.21258]],[[-61.60776,16.04113],[-61.60525,16.04188],[-61.6056,16.04023],[-61.60776,16.04113]],[[-61.62815,16.02632],[-61.62937,16.02883],[-61.62683,16.02615],[-61.62815,16.02632]],[[-61.5548,16.27591],[-61.55546,16.27291],[-61.5589,16.27703],[-61.56059,16.27611],[-61.55994,16.28043],[-61.55531,16.27856],[-61.556,16.27645],[-61.5548,16.27591]]],[[[-61.7806,16.36947],[-61.78111,16.3664],[-61.77833,16.36417],[-61.77794,16.36783],[-61.7806,16.36947]]],[[[-61.46659,16.50678],[-61.46431,16.51401],[-61.46678,16.51046],[-61.4696,16.50997],[-61.46993,16.51185],[-61.47041,16.51005],[-61.47313,16.51049],[-61.47501,16.5057],[-61.47765,16.50445],[-61.47921,16.49812],[-61.48468,16.49411],[-61.48572,16.49142],[-61.49251,16.48922],[-61.50037,16.48396],[-61.5037,16.4839],[-61.50532,16.47902],[-61.50375,16.47693],[-61.50525,16.47686],[-61.50551,16.47836],[-61.50731,16.47369],[-61.51802,16.47009],[-61.52177,16.46607],[-61.52227,16.46244],[-61.52839,16.46106],[-61.53499,16.45402],[-61.53727,16.44355],[-61.54126,16.43792],[-61.5381,16.43797],[-61.53688,16.43619],[-61.53681,16.43135],[-61.53302,16.4243],[-61.53436,16.42045],[-61.53293,16.41235],[-61.53152,16.41241],[-61.52934,16.40929],[-61.52785,16.40455],[-61.52844,16.40058],[-61.52546,16.3951],[-61.51158,16.38921],[-61.50828,16.38538],[-61.5067,16.38898],[-61.5091,16.38891],[-61.50667,16.38959],[-61.50274,16.38496],[-61.4986,16.38272],[-61.49607,16.37819],[-61.4944,16.37844],[-61.49601,16.37784],[-61.49512,16.37649],[-61.49691,16.37214],[-61.49683,16.36705],[-61.50121,16.36451],[-61.49584,16.36116],[-61.49947,16.35549],[-61.4917,16.35358],[-61.50989,16.34958],[-61.50392,16.34593],[-61.50704,16.34563],[-61.50854,16.3414],[-61.51024,16.34286],[-61.51964,16.34324],[-61.52314,16.34589],[-61.52467,16.34194],[-61.53023,16.3395],[-61.52807,16.33786],[-61.53443,16.33341],[-61.53544,16.33151],[-61.53329,16.32675],[-61.53347,16.32318],[-61.53571,16.31857],[-61.53374,16.31622],[-61.53455,16.31264],[-61.5367,16.3109],[-61.53719,16.30644],[-61.54081,16.30265],[-61.54477,16.30092],[-61.54485,16.30409],[-61.54678,16.30112],[-61.54675,16.29883],[-61.5438,16.29516],[-61.54479,16.29483],[-61.54409,16.29258],[-61.54255,16.29301],[-61.5421,16.29601],[-61.54119,16.28952],[-61.54209,16.28853],[-61.54414,16.29203],[-61.5479,16.29293],[-61.55178,16.28601],[-61.55256,16.28723],[-61.55088,16.28779],[-61.5519,16.28923],[-61.55622,16.28732],[-61.55179,16.28353],[-61.55022,16.28453],[-61.54847,16.28022],[-61.54874,16.27274],[-61.54705,16.27198],[-61.54811,16.26858],[-61.54622,16.26706],[-61.54748,16.26538],[-61.54619,16.25525],[-61.54964,16.25174],[-61.54192,16.24454],[-61.5416,16.24049],[-61.53896,16.23982],[-61.53895,16.23628],[-61.5364,16.23431],[-61.53435,16.23595],[-61.53396,16.22976],[-61.53012,16.22708],[-61.5327,16.22618],[-61.53287,16.22467],[-61.52897,16.22233],[-61.52734,16.22278],[-61.52747,16.22108],[-61.52996,16.22003],[-61.52747,16.21863],[-61.5237,16.22134],[-61.52188,16.21806],[-61.52333,16.2181],[-61.52312,16.21661],[-61.52966,16.21829],[-61.53254,16.22197],[-61.52962,16.21613],[-61.52816,16.21712],[-61.52246,16.21281],[-61.51895,16.21504],[-61.51045,16.2161],[-61.50701,16.2124],[-61.50799,16.20681],[-61.50479,16.20536],[-61.48604,16.20499],[-61.48159,16.20222],[-61.47523,16.20138],[-61.47105,16.19861],[-61.46771,16.19904],[-61.46411,16.19678],[-61.45888,16.20149],[-61.45572,16.20199],[-61.45465,16.20024],[-61.44387,16.20284],[-61.44229,16.20741],[-61.43883,16.20881],[-61.4268,16.21065],[-61.42505,16.20778],[-61.42401,16.20944],[-61.42184,16.2085],[-61.41772,16.21177],[-61.40996,16.21192],[-61.40802,16.2133],[-61.40519,16.21518],[-61.40581,16.21685],[-61.39879,16.21957],[-61.39474,16.21739],[-61.39338,16.22148],[-61.39041,16.22364],[-61.37915,16.22252],[-61.37245,16.22792],[-61.37043,16.23168],[-61.36355,16.23468],[-61.34801,16.23678],[-61.3376,16.24198],[-61.32437,16.2413],[-61.32708,16.24429],[-61.32646,16.24649],[-61.32562,16.24372],[-61.32367,16.2442],[-61.31738,16.24025],[-61.31276,16.24182],[-61.30381,16.24207],[-61.30076,16.24366],[-61.29436,16.24333],[-61.2869,16.24554],[-61.28405,16.24872],[-61.27998,16.25027],[-61.26584,16.25029],[-61.26505,16.25107],[-61.26847,16.25212],[-61.26798,16.25314],[-61.26444,16.25117],[-61.25554,16.25635],[-61.2292,16.25298],[-61.22244,16.25356],[-61.20487,16.24982],[-61.19187,16.25035],[-61.18257,16.24547],[-61.17937,16.24537],[-61.17689,16.24387],[-61.17648,16.24183],[-61.17397,16.24501],[-61.17652,16.24654],[-61.1762,16.24873],[-61.18137,16.24798],[-61.18089,16.24924],[-61.18556,16.25276],[-61.18486,16.2504],[-61.18719,16.25031],[-61.18943,16.25254],[-61.19101,16.25232],[-61.19087,16.25392],[-61.1951,16.25445],[-61.19811,16.25769],[-61.19854,16.25538],[-61.20064,16.25415],[-61.20554,16.25489],[-61.21673,16.25978],[-61.22035,16.26374],[-61.23599,16.26846],[-61.24304,16.27342],[-61.24585,16.27822],[-61.24812,16.27843],[-61.24709,16.27965],[-61.24889,16.28501],[-61.25625,16.29502],[-61.25626,16.29837],[-61.2598,16.3043],[-61.26318,16.30578],[-61.26651,16.30481],[-61.26736,16.30628],[-61.26614,16.30919],[-61.27222,16.31183],[-61.27275,16.31323],[-61.27564,16.31303],[-61.27722,16.31643],[-61.28199,16.31652],[-61.28276,16.31909],[-61.28608,16.32144],[-61.28937,16.32063],[-61.2956,16.3232],[-61.29686,16.32258],[-61.29789,16.32748],[-61.30421,16.32486],[-61.3123,16.33157],[-61.3198,16.32981],[-61.32505,16.33251],[-61.33389,16.33376],[-61.34038,16.33299],[-61.34206,16.32883],[-61.34276,16.33188],[-61.34673,16.33606],[-61.35223,16.33335],[-61.35677,16.33576],[-61.36518,16.33749],[-61.36715,16.33504],[-61.3693,16.33556],[-61.36794,16.33847],[-61.37568,16.34077],[-61.37972,16.34374],[-61.38194,16.34832],[-61.38587,16.35098],[-61.39074,16.35882],[-61.39287,16.35989],[-61.39341,16.36358],[-61.40078,16.37276],[-61.40329,16.38168],[-61.40572,16.38455],[-61.40586,16.38919],[-61.40442,16.39183],[-61.40568,16.39494],[-61.40407,16.39755],[-61.40496,16.40042],[-61.40396,16.40253],[-61.40599,16.40565],[-61.40558,16.40717],[-61.40232,16.40775],[-61.40062,16.41203],[-61.40281,16.41589],[-61.39851,16.41869],[-61.39859,16.42845],[-61.40088,16.43337],[-61.40169,16.44232],[-61.40317,16.44291],[-61.40338,16.44553],[-61.40757,16.4474],[-61.40636,16.45107],[-61.40808,16.45201],[-61.40852,16.45991],[-61.41097,16.46052],[-61.41032,16.46757],[-61.41539,16.47157],[-61.41817,16.47139],[-61.42018,16.47602],[-61.42221,16.47471],[-61.42692,16.4789],[-61.42831,16.47863],[-61.42885,16.48229],[-61.43314,16.48338],[-61.43394,16.4871],[-61.4384,16.48866],[-61.43917,16.49029],[-61.44075,16.4901],[-61.44165,16.48642],[-61.44367,16.49959],[-61.44644,16.50035],[-61.45209,16.49731],[-61.45419,16.49966],[-61.45797,16.49862],[-61.45961,16.50109],[-61.46183,16.4993],[-61.46397,16.50211],[-61.4621,16.50444],[-61.46659,16.50678]],[[-61.48258,16.42153],[-61.481,16.42023],[-61.4824,16.41632],[-61.48429,16.4156],[-61.48305,16.41313],[-61.48523,16.41483],[-61.48705,16.41368],[-61.48744,16.41531],[-61.49224,16.41268],[-61.49259,16.41385],[-61.48924,16.41487],[-61.48752,16.41839],[-61.48779,16.41686],[-61.4852,16.41604],[-61.48212,16.42003],[-61.48258,16.42153]],[[-61.4974,16.34832],[-61.4941,16.34863],[-61.49363,16.34686],[-61.50001,16.34715],[-61.4974,16.34832]],[[-61.50015,16.3463],[-61.49689,16.34316],[-61.5071,16.34203],[-61.50557,16.34444],[-61.50185,16.34444],[-61.50015,16.3463]],[[-61.34141,16.32555],[-61.34199,16.32855],[-61.33828,16.32303],[-61.34141,16.32555]],[[-61.32088,16.30484],[-61.32138,16.30595],[-61.31923,16.30619],[-61.32015,16.29831],[-61.3158,16.29851],[-61.31112,16.29483],[-61.31638,16.29796],[-61.31738,16.29622],[-61.32029,16.2963],[-61.32218,16.30023],[-61.32088,16.30484]],[[-61.55359,16.28701],[-61.55319,16.28606],[-61.55451,16.28674],[-61.55359,16.28701]],[[-61.44888,16.20655],[-61.44458,16.20606],[-61.44512,16.20495],[-61.44768,16.20512],[-61.44921,16.20544],[-61.44888,16.20655]]]]}},{"type":"Feature","properties":{"carta_id":"334","answer_id":"36","name":"Ilhas Heard e McDonald"},"geometry":{"type":"Point","coordinates":[72.51667,-53.1]}},{"type":"Feature","properties":{"carta_id":"474","answer_id":"250","name":"Martinica"},"geometry":{"type":"MultiPolygon","coordinates":[[[[-60.86702,14.39172],[-60.86796,14.39237],[-60.86856,14.39118],[-60.86726,14.38878],[-60.86702,14.39172]]],[[[-60.82586,14.4319],[-60.82908,14.43188],[-60.82972,14.42982],[-60.82609,14.42876],[-60.82586,14.4319]]],[[[-61.03859,14.44223],[-61.03771,14.44369],[-61.03922,14.44429],[-61.04038,14.44325],[-61.03859,14.44223]]],[[[-60.97867,14.47483],[-60.97899,14.47771],[-60.9801,14.47609],[-60.97867,14.47483]]],[[[-60.98348,14.48548],[-60.98357,14.48566],[-60.98357,14.48548],[-60.98348,14.48548]]],[[[-61.02,14.54679],[-61.01658,14.54802],[-61.01641,14.54986],[-61.02137,14.54888],[-61.02187,14.5472],[-61.02,14.54679]]],[[[-60.8372,14.56676],[-60.83461,14.56786],[-60.83439,14.56962],[-60.83648,14.56918],[-60.83831,14.56611],[-60.8372,14.56676]]],[[[-61.0212,14.60029],[-61.02393,14.59836],[-61.01836,14.59999],[-61.0212,14.60029]]],[[[-60.86325,14.60546],[-60.86364,14.60706],[-60.86466,14.6055],[-60.86325,14.60546]]],[[[-60.85246,14.61255],[-60.8522,14.61438],[-60.85738,14.61273],[-60.85758,14.61092],[-60.86115,14.60905],[-60.85771,14.60954],[-60.85629,14.61143],[-60.85017,14.61008],[-60.85246,14.61255]]],[[[-60.86069,14.61879],[-60.85843,14.62207],[-60.8644,14.61879],[-60.86069,14.61879]]],[[[-60.84732,14.6273],[-60.85003,14.62505],[-60.84898,14.62388],[-60.84654,14.62427],[-60.84732,14.6273]]],[[[-60.85268,14.62661],[-60.853,14.62907],[-60.85394,14.62652],[-60.85268,14.62661]]],[[[-60.8888,14.63473],[-60.88966,14.63366],[-60.88755,14.62993],[-60.8848,14.63239],[-60.8888,14.63473]]],[[[-60.88875,14.64143],[-60.88995,14.643],[-60.89304,14.64085],[-60.88875,14.64143]]],[[[-60.90074,14.68654],[-60.90186,14.68654],[-60.90003,14.68525],[-60.89935,14.68667],[-60.90074,14.68654]]],[[[-60.90955,14.68471],[-60.90955,14.68735],[-60.91093,14.68461],[-60.90955,14.68471]]],[[[-60.88299,14.6882],[-60.88389,14.68943],[-60.8838,14.68682],[-60.88242,14.68625],[-60.88299,14.6882]]],[[[-60.89495,14.69527],[-60.89812,14.69675],[-60.89183,14.69286],[-60.89032,14.68976],[-60.88878,14.68985],[-60.88768,14.69222],[-60.88675,14.69131],[-60.88315,14.69294],[-60.87966,14.6923],[-60.88785,14.69689],[-60.89176,14.69524],[-60.89385,14.69662],[-60.89495,14.69527]]],[[[-60.98783,14.78816],[-60.99034,14.78759],[-60.98822,14.78709],[-60.98783,14.78816]]],[[[-61.03145,14.82397],[-61.02933,14.82742],[-61.02965,14.83034],[-61.03626,14.82975],[-61.03955,14.83145],[-61.04115,14.82999],[-61.04004,14.83349],[-61.0431,14.83658],[-61.05158,14.83255],[-61.06174,14.83643],[-61.06444,14.84276],[-61.07098,14.84316],[-61.07771,14.84633],[-61.08147,14.85141],[-61.09161,14.85463],[-61.09832,14.86307],[-61.10264,14.86344],[-61.11376,14.87031],[-61.11742,14.86914],[-61.12779,14.87442],[-61.1349,14.87448],[-61.13886,14.87744],[-61.14553,14.87678],[-61.14806,14.87844],[-61.15435,14.87683],[-61.1656,14.87708],[-61.17706,14.87373],[-61.18099,14.87476],[-61.18255,14.87139],[-61.18758,14.86804],[-61.19316,14.86713],[-61.19758,14.86345],[-61.20511,14.86195],[-61.20979,14.85834],[-61.21394,14.84862],[-61.21753,14.84696],[-61.21879,14.84253],[-61.2226,14.83827],[-61.22876,14.82208],[-61.22866,14.81194],[-61.22602,14.80691],[-61.22695,14.80167],[-61.22226,14.79828],[-61.21454,14.78237],[-61.20509,14.77994],[-61.19826,14.76737],[-61.19431,14.76495],[-61.18522,14.75748],[-61.17659,14.74513],[-61.17688,14.73515],[-61.17969,14.73123],[-61.18439,14.7084],[-61.17569,14.68667],[-61.16403,14.67234],[-61.16145,14.66621],[-61.15856,14.66371],[-61.15674,14.65688],[-61.15236,14.6541],[-61.15199,14.64979],[-61.13905,14.64223],[-61.1387,14.63766],[-61.13541,14.63327],[-61.13012,14.63326],[-61.12273,14.62926],[-61.11992,14.63001],[-61.11836,14.62818],[-61.11335,14.62689],[-61.10506,14.61965],[-61.10331,14.61592],[-61.09824,14.61158],[-61.09699,14.60707],[-61.09081,14.59903],[-61.06946,14.60222],[-61.067,14.60076],[-61.06604,14.59728],[-61.06482,14.59941],[-61.0654,14.60325],[-61.0647,14.60141],[-61.06105,14.60201],[-61.06135,14.60017],[-61.05765,14.60455],[-61.06068,14.5972],[-61.06014,14.59465],[-61.05875,14.59341],[-61.0553,14.59481],[-61.05263,14.59853],[-61.04838,14.59649],[-61.05053,14.59384],[-61.04982,14.59027],[-61.04619,14.59058],[-61.04606,14.59402],[-61.04263,14.5946],[-61.04284,14.59916],[-61.03715,14.59279],[-61.03661,14.5953],[-61.03908,14.60002],[-61.0397,14.6055],[-61.03744,14.605],[-61.03203,14.60699],[-61.0313,14.60592],[-61.02938,14.60832],[-61.02701,14.60882],[-61.02597,14.61143],[-61.02369,14.61249],[-61.02273,14.60938],[-61.01999,14.61057],[-61.02142,14.60979],[-61.01955,14.60758],[-61.0216,14.60534],[-61.02111,14.60286],[-61.00764,14.60271],[-61.0124,14.60155],[-61.00867,14.60134],[-61.00972,14.60051],[-61.01767,14.59924],[-61.01811,14.59836],[-61.01514,14.59864],[-61.01662,14.59682],[-61.01451,14.59523],[-61.01747,14.59406],[-61.01573,14.59256],[-61.01869,14.5935],[-61.0199,14.59201],[-61.02335,14.5917],[-61.02421,14.58518],[-61.02291,14.58349],[-61.01928,14.58444],[-61.01705,14.5823],[-61.01562,14.58274],[-61.01403,14.5787],[-61.00985,14.57811],[-61.00982,14.57542],[-61.01388,14.57072],[-61.01379,14.56882],[-61.01051,14.56688],[-61.01098,14.56097],[-61.0087,14.5605],[-61.00656,14.56225],[-61.00075,14.55964],[-60.99728,14.56116],[-60.99494,14.55845],[-60.99654,14.55619],[-60.99181,14.55383],[-60.99017,14.54986],[-60.99145,14.55056],[-60.99049,14.54814],[-60.99239,14.55133],[-60.9996,14.55138],[-60.99453,14.54892],[-60.99399,14.54664],[-61.00048,14.54465],[-61.0055,14.53808],[-61.00656,14.54118],[-61.00832,14.53995],[-61.00805,14.54167],[-61.00959,14.54137],[-61.01285,14.53729],[-61.01267,14.53534],[-61.01653,14.53417],[-61.01819,14.53903],[-61.02031,14.53933],[-61.02112,14.53763],[-61.02268,14.53946],[-61.02717,14.53485],[-61.02768,14.53695],[-61.03187,14.53683],[-61.02988,14.54066],[-61.03421,14.54207],[-61.03564,14.53997],[-61.03661,14.54183],[-61.04061,14.54118],[-61.04392,14.54685],[-61.03737,14.54983],[-61.03736,14.55511],[-61.03941,14.55649],[-61.04451,14.55218],[-61.05054,14.55104],[-61.0517,14.55175],[-61.04856,14.55933],[-61.0505,14.55904],[-61.05095,14.55713],[-61.05183,14.56024],[-61.05401,14.55674],[-61.05318,14.55257],[-61.0566,14.55007],[-61.05838,14.55157],[-61.06082,14.55043],[-61.06552,14.5407],[-61.06842,14.53963],[-61.07619,14.54212],[-61.08081,14.53667],[-61.08713,14.5341],[-61.08857,14.53143],[-61.08701,14.5276],[-61.08972,14.52784],[-61.08952,14.52532],[-61.09403,14.52467],[-61.09421,14.52192],[-61.097,14.51853],[-61.09635,14.51396],[-61.10057,14.50834],[-61.09596,14.50646],[-61.08993,14.50794],[-61.08502,14.50519],[-61.084,14.49845],[-61.08921,14.4977],[-61.09015,14.4933],[-61.08547,14.49111],[-61.08236,14.4921],[-61.07965,14.4897],[-61.07886,14.47889],[-61.0822,14.4765],[-61.08238,14.47354],[-61.07977,14.46886],[-61.07625,14.46778],[-61.0734,14.46913],[-61.07009,14.46868],[-61.0678,14.46651],[-61.06669,14.46006],[-61.06441,14.45745],[-61.0586,14.45431],[-61.05529,14.4541],[-61.04771,14.45961],[-61.04524,14.4699],[-61.03353,14.4769],[-61.01897,14.48081],[-61.00661,14.47163],[-61.008,14.47335],[-61.00683,14.47695],[-61.00378,14.47937],[-61.00017,14.47403],[-60.99993,14.47053],[-60.99714,14.4686],[-60.99309,14.46849],[-60.99135,14.46664],[-60.98976,14.46832],[-60.99141,14.47095],[-60.99003,14.4747],[-60.99186,14.47682],[-60.99168,14.47923],[-60.98509,14.47317],[-60.98475,14.47748],[-60.98308,14.47839],[-60.98406,14.47953],[-60.98067,14.48268],[-60.97565,14.47552],[-60.97814,14.47158],[-60.97628,14.4693],[-60.9735,14.46832],[-60.96946,14.47046],[-60.96918,14.47255],[-60.96407,14.47299],[-60.96126,14.46892],[-60.95698,14.46796],[-60.95574,14.46518],[-60.94638,14.46716],[-60.94215,14.46608],[-60.9413,14.46426],[-60.93604,14.46473],[-60.93497,14.46284],[-60.9316,14.463],[-60.92344,14.46699],[-60.91899,14.46735],[-60.91758,14.47169],[-60.91625,14.46875],[-60.91103,14.46864],[-60.91057,14.47144],[-60.91157,14.46055],[-60.90945,14.46015],[-60.90577,14.45557],[-60.89999,14.45174],[-60.90039,14.44946],[-60.89904,14.44816],[-60.89272,14.45281],[-60.89077,14.45889],[-60.8886,14.45944],[-60.88304,14.46644],[-60.88215,14.46533],[-60.88035,14.46787],[-60.87769,14.46821],[-60.87699,14.47107],[-60.87523,14.47165],[-60.87269,14.46864],[-60.86631,14.47072],[-60.86385,14.46858],[-60.86511,14.46419],[-60.86225,14.46281],[-60.86745,14.45859],[-60.86423,14.45628],[-60.86454,14.45499],[-60.87146,14.45539],[-60.87226,14.45718],[-60.87377,14.45176],[-60.87536,14.4516],[-60.87286,14.45114],[-60.87243,14.44789],[-60.87615,14.4488],[-60.87801,14.44663],[-60.88381,14.45172],[-60.8842,14.44728],[-60.8809,14.44308],[-60.8799,14.43861],[-60.88547,14.42944],[-60.88592,14.42637],[-60.89315,14.41956],[-60.88475,14.41364],[-60.88488,14.41087],[-60.88713,14.41035],[-60.88407,14.40792],[-60.88469,14.40573],[-60.87954,14.40409],[-60.87593,14.40107],[-60.8755,14.39915],[-60.87768,14.39729],[-60.86889,14.39498],[-60.86373,14.39799],[-60.86305,14.39594],[-60.86045,14.39722],[-60.85968,14.39615],[-60.85798,14.39817],[-60.85591,14.39725],[-60.85478,14.40437],[-60.84657,14.41353],[-60.84365,14.4137],[-60.84061,14.41092],[-60.83866,14.41166],[-60.83809,14.41433],[-60.84469,14.41514],[-60.8433,14.42035],[-60.84735,14.4195],[-60.84727,14.42237],[-60.84943,14.42175],[-60.84859,14.42742],[-60.8422,14.42701],[-60.84087,14.42256],[-60.8345,14.42407],[-60.83544,14.42664],[-60.83267,14.42951],[-60.83418,14.43374],[-60.83303,14.43303],[-60.82995,14.43562],[-60.82648,14.43595],[-60.82254,14.44676],[-60.82376,14.45242],[-60.8219,14.45293],[-60.82018,14.4572],[-60.81734,14.45894],[-60.816,14.45832],[-60.81612,14.46015],[-60.81456,14.46081],[-60.8189,14.46734],[-60.81852,14.4698],[-60.82406,14.47174],[-60.82166,14.4731],[-60.82202,14.4753],[-60.82017,14.47654],[-60.81889,14.47179],[-60.81365,14.47396],[-60.81055,14.48018],[-60.81487,14.48674],[-60.81428,14.48959],[-60.81564,14.49276],[-60.82085,14.49283],[-60.82331,14.49592],[-60.82416,14.49877],[-60.8225,14.50291],[-60.82407,14.50429],[-60.82235,14.51059],[-60.82483,14.51468],[-60.82975,14.5145],[-60.83366,14.5099],[-60.83678,14.51171],[-60.83521,14.51505],[-60.83633,14.51638],[-60.83341,14.51786],[-60.83571,14.51961],[-60.8352,14.52301],[-60.83319,14.52402],[-60.83393,14.52326],[-60.82914,14.52429],[-60.82608,14.52166],[-60.82443,14.53108],[-60.82594,14.53324],[-60.83339,14.53074],[-60.8331,14.53255],[-60.83688,14.53303],[-60.83452,14.53558],[-60.82904,14.53549],[-60.82796,14.53429],[-60.82865,14.53592],[-60.82671,14.53698],[-60.82904,14.54234],[-60.83328,14.54643],[-60.83399,14.54523],[-60.8362,14.54607],[-60.83858,14.5498],[-60.83592,14.55147],[-60.83568,14.55656],[-60.8336,14.5566],[-60.83054,14.55964],[-60.82977,14.56543],[-60.82596,14.56824],[-60.83052,14.56914],[-60.84111,14.5591],[-60.84515,14.55962],[-60.84084,14.56363],[-60.84089,14.56674],[-60.84783,14.56462],[-60.84895,14.56624],[-60.84529,14.56818],[-60.84334,14.57139],[-60.84718,14.56943],[-60.8492,14.57044],[-60.85151,14.56827],[-60.85416,14.57405],[-60.85271,14.57689],[-60.84732,14.5764],[-60.84228,14.57836],[-60.85313,14.58052],[-60.85048,14.58299],[-60.84617,14.58234],[-60.84572,14.58417],[-60.85033,14.58554],[-60.85047,14.58698],[-60.8487,14.58788],[-60.84935,14.58989],[-60.85097,14.58987],[-60.85122,14.59556],[-60.85789,14.58951],[-60.86036,14.58984],[-60.85933,14.5887],[-60.86368,14.59153],[-60.86762,14.59055],[-60.86809,14.5935],[-60.87253,14.59615],[-60.87204,14.60036],[-60.8695,14.60053],[-60.87179,14.60167],[-60.87001,14.60128],[-60.86899,14.60012],[-60.86782,14.60109],[-60.86905,14.60496],[-60.87264,14.6075],[-60.87581,14.60784],[-60.87474,14.60969],[-60.87706,14.61028],[-60.87826,14.61268],[-60.87587,14.61613],[-60.86912,14.61762],[-60.87023,14.6193],[-60.87478,14.61895],[-60.87688,14.62134],[-60.88046,14.61777],[-60.88361,14.61946],[-60.88642,14.61549],[-60.88678,14.62],[-60.8885,14.62225],[-60.88943,14.61933],[-60.89417,14.6193],[-60.89652,14.62077],[-60.90059,14.61784],[-60.90291,14.61794],[-60.8981,14.62049],[-60.89912,14.62301],[-60.89688,14.624],[-60.89779,14.62863],[-60.8948,14.62839],[-60.89436,14.63132],[-60.89094,14.63119],[-60.89212,14.63424],[-60.89113,14.63586],[-60.89463,14.6355],[-60.89368,14.63744],[-60.8949,14.63886],[-60.89338,14.64081],[-60.89563,14.64119],[-60.89987,14.64537],[-60.90487,14.64529],[-60.90568,14.64835],[-60.90169,14.65],[-60.90326,14.65194],[-60.89955,14.65174],[-60.89679,14.64871],[-60.89513,14.65259],[-60.89398,14.64993],[-60.89142,14.65135],[-60.89016,14.65038],[-60.88906,14.6565],[-60.88565,14.65293],[-60.88484,14.65634],[-60.8861,14.65832],[-60.88495,14.65962],[-60.88327,14.65863],[-60.88251,14.66458],[-60.88448,14.66595],[-60.8898,14.6655],[-60.89151,14.66242],[-60.89075,14.65962],[-60.89381,14.65891],[-60.8949,14.66101],[-60.89926,14.66127],[-60.89711,14.66514],[-60.89996,14.66507],[-60.9013,14.66223],[-60.90368,14.66395],[-60.90332,14.6661],[-60.90629,14.66662],[-60.90589,14.66214],[-60.90755,14.66339],[-60.90954,14.66254],[-60.91162,14.66572],[-60.91582,14.66336],[-60.91613,14.66122],[-60.91968,14.65833],[-60.91971,14.65433],[-60.92327,14.65517],[-60.92724,14.65302],[-60.9298,14.65376],[-60.93295,14.65786],[-60.93518,14.66483],[-60.93917,14.66527],[-60.94218,14.66771],[-60.9429,14.67133],[-60.93818,14.67516],[-60.93788,14.6803],[-60.93576,14.683],[-60.93371,14.68283],[-60.92965,14.67858],[-60.92433,14.67838],[-60.92388,14.67934],[-60.9292,14.68338],[-60.92848,14.68663],[-60.92589,14.68886],[-60.92064,14.68778],[-60.91852,14.69104],[-60.91269,14.6917],[-60.91109,14.68788],[-60.90654,14.69583],[-60.9015,14.6955],[-60.90209,14.69721],[-60.90061,14.69892],[-60.90324,14.69974],[-60.90136,14.70238],[-60.9086,14.69959],[-60.91394,14.70265],[-60.91524,14.70533],[-60.9131,14.70704],[-60.9154,14.70951],[-60.91384,14.71576],[-60.91565,14.71469],[-60.9179,14.71546],[-60.92067,14.7099],[-60.92667,14.70741],[-60.93245,14.70728],[-60.93339,14.71219],[-60.92852,14.71524],[-60.92909,14.71823],[-60.92774,14.72027],[-60.92516,14.72065],[-60.92586,14.72192],[-60.9304,14.72143],[-60.93353,14.71536],[-60.9379,14.71681],[-60.94096,14.7156],[-60.94072,14.71886],[-60.93959,14.71857],[-60.93969,14.72109],[-60.94366,14.72225],[-60.94593,14.72812],[-60.9438,14.73373],[-60.94107,14.73288],[-60.93762,14.7342],[-60.94274,14.73588],[-60.94444,14.73784],[-60.94431,14.74046],[-60.94244,14.74372],[-60.94045,14.74308],[-60.93816,14.74873],[-60.93534,14.75106],[-60.93128,14.7495],[-60.92535,14.75093],[-60.9197,14.74678],[-60.91314,14.74527],[-60.91077,14.74127],[-60.9104,14.73589],[-60.90879,14.73499],[-60.90332,14.73729],[-60.90061,14.73481],[-60.89707,14.73519],[-60.89564,14.73393],[-60.89631,14.73629],[-60.89525,14.73723],[-60.8913,14.73592],[-60.89138,14.7406],[-60.8984,14.7422],[-60.89885,14.745],[-60.89392,14.74954],[-60.89077,14.74814],[-60.88877,14.75209],[-60.89083,14.7562],[-60.89679,14.75868],[-60.89643,14.76171],[-60.8934,14.76167],[-60.89348,14.76451],[-60.89115,14.76651],[-60.88612,14.76554],[-60.88368,14.76773],[-60.88175,14.76621],[-60.88154,14.76129],[-60.87835,14.75808],[-60.87729,14.75935],[-60.87344,14.75834],[-60.87258,14.76001],[-60.87568,14.76342],[-60.8763,14.76631],[-60.87367,14.76835],[-60.87487,14.76998],[-60.87339,14.77186],[-60.87694,14.77384],[-60.87465,14.77448],[-60.88237,14.77723],[-60.88506,14.77623],[-60.88601,14.7799],[-60.88819,14.77962],[-60.89216,14.77334],[-60.8976,14.7698],[-60.90129,14.76943],[-60.90198,14.76695],[-60.90665,14.76562],[-60.90915,14.76662],[-60.91166,14.7623],[-60.91945,14.75872],[-60.92307,14.75888],[-60.92503,14.76322],[-60.92607,14.76189],[-60.93466,14.76131],[-60.93533,14.75917],[-60.94109,14.75666],[-60.94471,14.7569],[-60.94494,14.75458],[-60.95162,14.74869],[-60.95419,14.73773],[-60.95725,14.73625],[-60.96142,14.73786],[-60.96359,14.74428],[-60.96197,14.74721],[-60.96489,14.74836],[-60.96724,14.7521],[-60.96735,14.75482],[-60.96601,14.75587],[-60.96802,14.76037],[-60.9743,14.76409],[-60.97445,14.7679],[-60.97922,14.7694],[-60.98213,14.77294],[-60.98278,14.77533],[-60.97966,14.77561],[-60.9814,14.77859],[-60.98743,14.77779],[-60.98987,14.78042],[-60.99126,14.78541],[-60.99601,14.78557],[-60.99866,14.79019],[-60.99879,14.79347],[-61.00409,14.79791],[-61.00525,14.80153],[-61.0036,14.80277],[-61.00196,14.80814],[-61.00514,14.80767],[-61.00818,14.80928],[-61.01134,14.80664],[-61.01617,14.80735],[-61.02067,14.81211],[-61.02095,14.81802],[-61.02299,14.82146],[-61.03145,14.82397]],[[-61.0182,14.61348],[-61.01842,14.61439],[-61.01626,14.61385],[-61.0182,14.61348]],[[-60.95527,14.6063],[-60.95424,14.60425],[-60.9559,14.60487],[-60.95527,14.6063]],[[-60.93777,14.60131],[-60.93631,14.59831],[-60.93488,14.59948],[-60.93327,14.59601],[-60.93137,14.59597],[-60.93411,14.59298],[-60.92943,14.59449],[-60.92836,14.59288],[-60.92642,14.59503],[-60.92577,14.59361],[-60.92721,14.59135],[-60.93149,14.59015],[-60.93238,14.59161],[-60.93227,14.5887],[-60.9373,14.58933],[-60.93564,14.59569],[-60.93914,14.59642],[-60.93777,14.60131]],[[-60.87325,14.58825],[-60.87262,14.58654],[-60.87415,14.5878],[-60.87325,14.58825]],[[-61.01222,14.59211],[-61.0106,14.5922],[-61.01309,14.59143],[-61.0136,14.59466],[-61.01212,14.5953],[-61.01042,14.59337],[-61.01222,14.59211]],[[-60.97427,14.59531],[-60.97209,14.59605],[-60.97153,14.59364],[-60.97449,14.59376],[-60.97427,14.59531]],[[-61.00753,14.59648],[-61.00871,14.59785],[-61.00728,14.59876],[-61.00638,14.59822],[-61.00753,14.59648]],[[-61.01042,14.58394],[-61.01233,14.58175],[-61.01308,14.58371],[-61.01042,14.58394]],[[-61.012,14.57056],[-61.00798,14.57372],[-61.00878,14.57158],[-61.012,14.57056]],[[-60.99542,14.57226],[-60.99365,14.57348],[-60.99426,14.57007],[-60.99596,14.57064],[-60.99542,14.57226]],[[-60.98348,14.54064],[-60.98509,14.53803],[-60.98223,14.53717],[-60.98449,14.53708],[-60.9829,14.53455],[-60.98577,14.53835],[-60.98348,14.54064]],[[-61.00841,14.52999],[-61.01001,14.53081],[-61.00722,14.53151],[-61.00841,14.52999]],[[-60.82904,14.52796],[-60.82717,14.52842],[-60.83049,14.52662],[-60.82904,14.52796]],[[-60.82661,14.49783],[-60.82663,14.49967],[-60.82492,14.49541],[-60.82661,14.49783]],[[-60.98357,14.48539],[-60.98505,14.4847],[-60.98321,14.48791],[-60.98312,14.48485],[-60.98348,14.48548],[-60.98357,14.48539]],[[-60.993,14.47111],[-60.99162,14.47094],[-60.99363,14.47057],[-60.993,14.47111]],[[-60.96734,14.47587],[-60.96695,14.47794],[-60.96551,14.4774],[-60.96734,14.47587]],[[-60.96982,14.47317],[-60.97009,14.47219],[-60.97138,14.47339],[-60.96982,14.47317]],[[-60.86206,14.45508],[-60.86104,14.45817],[-60.86055,14.45558],[-60.86206,14.45508]],[[-60.86412,14.45248],[-60.86349,14.44956],[-60.86535,14.44982],[-60.86412,14.45248]],[[-60.84645,14.43466],[-60.84435,14.43255],[-60.8427,14.43279],[-60.84328,14.43019],[-60.84048,14.43051],[-60.83723,14.42637],[-60.83917,14.42607],[-60.84232,14.42859],[-60.84823,14.42829],[-60.84725,14.43023],[-60.84867,14.43409],[-60.84645,14.43466]],[[-60.86436,14.40068],[-60.86669,14.40005],[-60.86938,14.40171],[-60.87092,14.39834],[-60.87424,14.39772],[-60.87586,14.40661],[-60.87361,14.40823],[-60.87047,14.40652],[-60.86555,14.40736],[-60.86436,14.40338],[-60.86445,14.40338],[-60.86551,14.40078],[-60.86436,14.40068]],[[-60.91082,14.65888],[-60.91188,14.65766],[-60.91224,14.65966],[-60.91077,14.65989],[-60.91082,14.65888]]]]}},{"type":"Feature","properties":{"carta_id":"581","answer_id":"840","name":"Ilhas Menores Distantes dos Estados Unidos"},"geometry":{"type":"Point","coordinates":[166.63333,19.3]}},{"type":"Feature","properties":{"carta_id":"638","answer_id":"250","name":"Reunião"},"geometry":{"type":"MultiPolygon","coordinates":[[[[55.75585,-21.1151],[55.75721,-21.11394],[55.75524,-21.11451],[55.75519,-21.11601],[55.75585,-21.1151]]],[[[55.66444,-20.92528],[55.66365,-20.92583],[55.66596,-20.92802],[55.66444,-20.92528]]],[[[55.2851,-20.95728],[55.2811,-20.95643],[55.28218,-20.95586],[55.27909,-20.95158],[55.2781,-20.95898],[55.28286,-20.97282],[55.28138,-20.98664],[55.28465,-20.98638],[55.28792,-20.98936],[55.28228,-20.98731],[55.27684,-21.00084],[55.26373,-21.01203],[55.24686,-21.02016],[55.23465,-21.01872],[55.21701,-21.03669],[55.21791,-21.04401],[55.22406,-21.05373],[55.22182,-21.05805],[55.2207,-21.07649],[55.23149,-21.09191],[55.25483,-21.11026],[55.2532,-21.11329],[55.26101,-21.12346],[55.26459,-21.12655],[55.26709,-21.12683],[55.26824,-21.13024],[55.27122,-21.13153],[55.27087,-21.14353],[55.27252,-21.14958],[55.28214,-21.15356],[55.28748,-21.16323],[55.28586,-21.1686],[55.28747,-21.18308],[55.28672,-21.18823],[55.28111,-21.20273],[55.28605,-21.20785],[55.28883,-21.21831],[55.29259,-21.22363],[55.29353,-21.22969],[55.30202,-21.23587],[55.3109,-21.23981],[55.31378,-21.24437],[55.32041,-21.24806],[55.32109,-21.25233],[55.33137,-21.25943],[55.33218,-21.26532],[55.33446,-21.26924],[55.33231,-21.27251],[55.33401,-21.27596],[55.3398,-21.28006],[55.37597,-21.28628],[55.39053,-21.29169],[55.38415,-21.28736],[55.38095,-21.28292],[55.39095,-21.29035],[55.39195,-21.28763],[55.39407,-21.28696],[55.39232,-21.28855],[55.39303,-21.29173],[55.39186,-21.29252],[55.39734,-21.29581],[55.40227,-21.30144],[55.40493,-21.30044],[55.40349,-21.30279],[55.40871,-21.30705],[55.41103,-21.31333],[55.41773,-21.31994],[55.42978,-21.32597],[55.44854,-21.3279],[55.45282,-21.3299],[55.45492,-21.33126],[55.45425,-21.33474],[55.46085,-21.34172],[55.47033,-21.34473],[55.47441,-21.3445],[55.47517,-21.34629],[55.47685,-21.34572],[55.4749,-21.3441],[55.47844,-21.3442],[55.47959,-21.34132],[55.48032,-21.34726],[55.48446,-21.35168],[55.49333,-21.34975],[55.5033,-21.35128],[55.50636,-21.3539],[55.50689,-21.35312],[55.52374,-21.36085],[55.53869,-21.36414],[55.54675,-21.3682],[55.55103,-21.37382],[55.55539,-21.37097],[55.55928,-21.37252],[55.56374,-21.37211],[55.57229,-21.37593],[55.58685,-21.3714],[55.58999,-21.3759],[55.59879,-21.37877],[55.60256,-21.38349],[55.61034,-21.38684],[55.62547,-21.38245],[55.63581,-21.38227],[55.64133,-21.38375],[55.64579,-21.38859],[55.64884,-21.38859],[55.64996,-21.38653],[55.65871,-21.38263],[55.6632,-21.38191],[55.67125,-21.38348],[55.67709,-21.37846],[55.67776,-21.37606],[55.68108,-21.37436],[55.70869,-21.37608],[55.71653,-21.37474],[55.72813,-21.36945],[55.75076,-21.36749],[55.7567,-21.36294],[55.77424,-21.36502],[55.78263,-21.36066],[55.78868,-21.35431],[55.79874,-21.34806],[55.80731,-21.33525],[55.80844,-21.33101],[55.80585,-21.32573],[55.80379,-21.30926],[55.80536,-21.29208],[55.8011,-21.29019],[55.80244,-21.28579],[55.80401,-21.286],[55.80452,-21.29011],[55.80661,-21.29059],[55.80751,-21.28811],[55.8028,-21.2777],[55.80392,-21.27188],[55.80183,-21.259],[55.80824,-21.23599],[55.80878,-21.22712],[55.81254,-21.22067],[55.81405,-21.21411],[55.81764,-21.20937],[55.82242,-21.20694],[55.82484,-21.20257],[55.82553,-21.18608],[55.8316,-21.18635],[55.83641,-21.18301],[55.83302,-21.17228],[55.83258,-21.16563],[55.83439,-21.16408],[55.83409,-21.1606],[55.82748,-21.15248],[55.82542,-21.14389],[55.81834,-21.13986],[55.81452,-21.13985],[55.80882,-21.13712],[55.80644,-21.13313],[55.79728,-21.12624],[55.78304,-21.12476],[55.77921,-21.12135],[55.7729,-21.10979],[55.75293,-21.11962],[55.74574,-21.1271],[55.74589,-21.12844],[55.74311,-21.12908],[55.75505,-21.11419],[55.75951,-21.11136],[55.75848,-21.11291],[55.75978,-21.11389],[55.7698,-21.10853],[55.77059,-21.10685],[55.76922,-21.10583],[55.76476,-21.1092],[55.76232,-21.10924],[55.76265,-21.11053],[55.76031,-21.1125],[55.76093,-21.1098],[55.76718,-21.10408],[55.76035,-21.09991],[55.7608,-21.09838],[55.756,-21.08898],[55.75129,-21.08409],[55.74877,-21.08364],[55.73577,-21.06817],[55.73072,-21.05994],[55.73105,-21.04899],[55.72609,-21.04531],[55.72094,-21.03543],[55.71647,-21.03264],[55.71694,-21.03149],[55.71567,-21.03193],[55.71553,-21.03054],[55.70885,-21.02862],[55.70662,-21.02666],[55.70482,-21.01932],[55.7021,-21.01623],[55.70053,-21.00582],[55.69545,-21.00668],[55.70046,-21.00374],[55.6999,-20.97835],[55.69095,-20.98196],[55.69199,-20.98288],[55.69106,-20.98399],[55.69307,-20.98447],[55.69123,-20.98746],[55.69059,-20.98593],[55.6867,-20.98485],[55.69109,-20.98337],[55.68993,-20.9832],[55.67648,-20.98435],[55.67074,-20.98212],[55.66834,-20.98349],[55.66256,-20.98311],[55.65961,-20.9844],[55.65853,-20.9836],[55.65701,-20.97991],[55.65972,-20.98382],[55.66284,-20.98243],[55.66843,-20.98299],[55.67116,-20.98165],[55.67762,-20.98368],[55.68235,-20.9818],[55.68919,-20.9824],[55.69968,-20.97749],[55.69665,-20.96543],[55.69069,-20.95808],[55.68242,-20.9436],[55.66752,-20.92958],[55.66469,-20.93122],[55.66492,-20.92933],[55.66272,-20.92924],[55.66265,-20.92441],[55.65063,-20.9172],[55.64712,-20.91865],[55.64841,-20.91731],[55.64767,-20.91577],[55.64067,-20.91324],[55.63075,-20.91155],[55.63086,-20.91272],[55.62862,-20.91098],[55.62182,-20.91097],[55.61775,-20.90949],[55.61506,-20.91444],[55.61627,-20.91062],[55.61533,-20.90821],[55.59196,-20.89623],[55.58313,-20.89792],[55.57091,-20.89309],[55.55882,-20.89177],[55.54782,-20.89579],[55.53738,-20.89348],[55.53556,-20.89276],[55.53703,-20.89209],[55.53601,-20.89135],[55.51961,-20.8883],[55.50339,-20.8826],[55.48938,-20.88613],[55.472,-20.88465],[55.46741,-20.88366],[55.45843,-20.87823],[55.45389,-20.8736],[55.44937,-20.87172],[55.44417,-20.87599],[55.43891,-20.87647],[55.42982,-20.87409],[55.42844,-20.87431],[55.43384,-20.87556],[55.4218,-20.87459],[55.39548,-20.88188],[55.38904,-20.88829],[55.38379,-20.8913],[55.38077,-20.89103],[55.37687,-20.89516],[55.36829,-20.89876],[55.3651,-20.90441],[55.36049,-20.90819],[55.3524,-20.91176],[55.34855,-20.9185],[55.34764,-20.91799],[55.34416,-20.92208],[55.33068,-20.92786],[55.32344,-20.92855],[55.3251,-20.9298],[55.32487,-20.93526],[55.32199,-20.93519],[55.31957,-20.93287],[55.31314,-20.93305],[55.313,-20.93191],[55.31904,-20.93126],[55.31882,-20.92804],[55.30413,-20.92967],[55.29473,-20.92686],[55.28976,-20.92385],[55.28623,-20.92438],[55.28369,-20.92698],[55.28353,-20.93565],[55.28652,-20.93561],[55.28477,-20.93495],[55.28657,-20.93055],[55.288,-20.9315],[55.28641,-20.93231],[55.28957,-20.93298],[55.28793,-20.93399],[55.28937,-20.935],[55.28716,-20.93478],[55.28782,-20.94054],[55.2868,-20.93918],[55.2854,-20.94033],[55.28556,-20.93876],[55.28409,-20.93847],[55.28297,-20.94165],[55.28392,-20.9378],[55.2822,-20.93756],[55.27941,-20.9518],[55.28284,-20.9555],[55.28694,-20.95714],[55.29256,-20.95665],[55.29247,-20.95844],[55.29004,-20.95826],[55.29142,-20.95733],[55.2851,-20.95728]],[[55.6345,-20.98274],[55.62415,-20.99136],[55.6257,-20.98858],[55.6345,-20.98274]],[[55.68988,-20.98814],[55.69205,-20.99007],[55.69038,-20.99038],[55.68988,-20.98814]],[[55.62108,-20.9902],[55.6239,-20.99156],[55.61735,-20.99063],[55.62108,-20.9902]],[[55.48949,-21.01453],[55.48983,-21.01603],[55.48785,-21.01551],[55.48949,-21.01453]],[[55.42502,-21.01454],[55.42621,-21.01542],[55.42281,-21.01423],[55.42502,-21.01454]],[[55.27392,-21.02059],[55.27432,-21.01935],[55.27486,-21.02088],[55.27392,-21.02059]],[[55.7127,-21.04177],[55.71239,-21.04435],[55.70853,-21.04501],[55.71211,-21.04408],[55.7127,-21.04177]],[[55.6407,-21.09404],[55.64418,-21.09545],[55.6444,-21.09736],[55.63607,-21.09804],[55.63592,-21.09486],[55.6407,-21.09404]],[[55.74182,-21.12946],[55.74293,-21.12913],[55.74212,-21.13078],[55.74182,-21.12946]],[[55.52235,-21.16434],[55.52037,-21.16254],[55.52289,-21.16299],[55.52235,-21.16434]],[[55.52834,-21.1817],[55.52846,-21.18653],[55.52738,-21.18302],[55.52834,-21.1817]],[[55.58627,-21.19103],[55.58909,-21.19245],[55.58719,-21.19284],[55.58627,-21.19103]],[[55.45605,-21.2141],[55.45417,-21.21123],[55.45487,-21.20949],[55.45753,-21.2129],[55.45614,-21.21536],[55.45605,-21.2141]],[[55.45672,-21.2284],[55.45641,-21.22529],[55.45749,-21.22956],[55.45672,-21.2284]],[[55.64448,-21.23979],[55.64791,-21.24219],[55.64837,-21.24472],[55.64448,-21.23979]],[[55.45461,-21.27639],[55.45548,-21.27541],[55.455,-21.27927],[55.45704,-21.27744],[55.45435,-21.28013],[55.45461,-21.27639]],[[55.61218,-21.28274],[55.61222,-21.27805],[55.61038,-21.27546],[55.61239,-21.27784],[55.61224,-21.2817],[55.61407,-21.28202],[55.61354,-21.28655],[55.61146,-21.28471],[55.61218,-21.28274]],[[55.38311,-21.28295],[55.38188,-21.28091],[55.38409,-21.28182],[55.38311,-21.28295]],[[55.61356,-21.27917],[55.61317,-21.27726],[55.61443,-21.28139],[55.61319,-21.28091],[55.61356,-21.27917]],[[55.39172,-21.28652],[55.39095,-21.28747],[55.38823,-21.28552],[55.39172,-21.28652]],[[55.39152,-21.28604],[55.39063,-21.28421],[55.39191,-21.28444],[55.39152,-21.28604]],[[55.61766,-21.2972],[55.62012,-21.29927],[55.61982,-21.30151],[55.61885,-21.29976],[55.6182,-21.30196],[55.61766,-21.2972]],[[55.41311,-21.30068],[55.41157,-21.30248],[55.41203,-21.29971],[55.41311,-21.30068]],[[55.28318,-20.94238],[55.28381,-20.94376],[55.2821,-20.94515],[55.28318,-20.94238]]]]}},{"type":"Feature","properties":{"carta_id":"744","answer_id":"578","name":"Svalbard e Jan Mayen"},"geometry":{"type":"Point","coordinates":[20,78]}}]}
