{"type":"FeatureCollection","features":[{"type":"Feature","properties":{"carta_id":"16","answer_id":"16","name":"Samoa Americana"},"geometry":{"type":"MultiPolygon","coordinates":[[[[-170.59101,-14.26483],[-170.57624,-14.25254],[-170.56725,-14.25856],[-170.56847,-14.27093],[-170.58418,-14.27777],[-170.64232,-14.28069],[-170.65929,-14.28525],[-170.68358,-14.30283],[-170.72179,-14.35345],[-170.74865,-14.37469],[-170.75548,-14.36712],[-170.79646,-14.33994],[-170.82282,-14.32676],[-170.83125,-14.31943],[-170.78865,-14.29453],[-170.77257,-14.29144],[-170.73786,-14.29209],[-170.72151,-14.28924],[-170.69848,-14.26051],[-170.66145,-14.25237],[-170.62007,-14.25457],[-170.59101,-14.26483]]],[[[-169.46386,-14.22324],[-169.44404,-14.23065],[-169.44013,-14.24529],[-169.44713,-14.25563],[-169.46015,-14.25042],[-169.46809,-14.25872],[-169.47619,-14.26238],[-169.48497,-14.26198],[-169.49486,-14.25726],[-169.49836,-14.26605],[-169.50426,-14.2706],[-169.51252,-14.27174],[-169.52282,-14.27093],[-169.5255,-14.25897],[-169.52929,-14.24879],[-169.53478,-14.24114],[-169.54267,-14.23675],[-169.52754,-14.22601],[-169.50646,-14.22226],[-169.46386,-14.22324]]],[[[-168.16157,-14.53289],[-168.17308,-14.5237],[-168.16352,-14.51979],[-168.16047,-14.52093],[-168.16157,-14.53289]]],[[[-169.67622,-14.1749],[-169.66816,-14.16912],[-169.65819,-14.16888],[-169.64717,-14.17213],[-169.63561,-14.17702],[-169.66015,-14.18914],[-169.66975,-14.18792],[-169.67622,-14.1749]]],[[[-171.07282,-11.0525],[-171.07348,-11.06211],[-171.08153,-11.0661],[-171.08654,-11.06032],[-171.08564,-11.05137],[-171.07282,-11.0525]]]]}},{"type":"Feature","properties":{"carta_id":"162","answer_id":"162","name":"Ilha Christmas"},"geometry":{"type":"MultiPolygon","coordinates":[[[[105.70411,-10.43084],[105.71469,-10.43719],[105.71266,-10.45094],[105.71144,-10.4699],[105.70631,-10.49424],[105.70631,-10.51426],[105.69793,-10.52899],[105.69988,-10.5534],[105.69459,-10.56487],[105.67872,-10.56601],[105.67351,-10.54909],[105.66725,-10.5333],[105.66407,-10.51849],[105.64926,-10.51312],[105.62818,-10.50897],[105.60499,-10.51002],[105.58497,-10.51637],[105.5818,-10.50482],[105.5923,-10.49847],[105.59962,-10.48056],[105.59425,-10.46673],[105.59425,-10.45403],[105.60719,-10.45843],[105.62713,-10.46893],[105.65455,-10.4699],[105.66928,-10.45623],[105.68523,-10.44036],[105.70411,-10.43084]]]]}},{"type":"Feature","properties":{"carta_id":"534","answer_id":"534","name":"São Martinho (Holanda)"},"geometry":{"type":"MultiPolygon","coordinates":[[[[-63.107,18.06212],[-63.08589,18.05851],[-63.01757,18.03339],[-63.03063,18.01911],[-63.09765,18.03596],[-63.11217,18.04304],[-63.11889,18.0515],[-63.107,18.05947],[-63.107,18.06212]]]]}},{"type":"Feature","properties":{"carta_id":"663","answer_id":"663","name":"São Martinho (França)"},"geometry":{"type":"MultiPolygon","coordinates":[[[[-63.01757,18.03339],[-63.08589,18.05851],[-63.107,18.06212],[-63.107,18.06696],[-63.1153,18.06537],[-63.13052,18.06025],[-63.13435,18.05947],[-63.14387,18.06468],[-63.14684,18.0703],[-63.14363,18.07416],[-63.11376,18.07465],[-63.0961,18.0788],[-63.08381,18.08796],[-63.07909,18.10419],[-63.07087,18.11001],[-63.05211,18.11685],[-63.0314,18.12189],[-63.01765,18.12214],[-63.01793,18.10053],[-63.0111,18.07075],[-63.01073,18.04084],[-63.01757,18.03339]]]]}}]}
